[{"OBJECT_NAME":"STARLINK-36780","OBJECT_ID":"2026-034S","EPOCH":"2026-03-19T15:28:54.964704","MEAN_MOTION":15.80979433,"ECCENTRICITY":7.83e-5,"INCLINATION":53.1593,"RA_OF_ASC_NODE":161.3237,"ARG_OF_PERICENTER":332.5473,"MEAN_ANOMALY":27.5508,"EPHEMERIS_TYPE":0,"CLASSIFICATION_TYPE":"U","NORAD_CAT_ID":67866,"ELEMENT_SET_NO":999,"REV_AT_EPOCH":551,"BSTAR":0.00111,"MEAN_MOTION_DOT":0.00225293,"MEAN_MOTION_DDOT":0},{"OBJECT_NAME":"STARLINK-36761","OBJECT_ID":"2026-034T","EPOCH":"2026-03-19T15:27:50.235552","MEAN_MOTION":15.80966892,"ECCENTRICITY":7.292e-5,"INCLINATION":53.1605,"RA_OF_ASC_NODE":161.3172,"ARG_OF_PERICENTER":353.567,"MEAN_ANOMALY":6.5344,"EPHEMERIS_TYPE":0,"CLASSIFICATION_TYPE":"U","NORAD_CAT_ID":67867,"ELEMENT_SET_NO":999,"REV_AT_EPOCH":551,"BSTAR":0.00079848779,"MEAN_MOTION_DOT":0.00160554,"MEAN_MOTION_DDOT":0},{"OBJECT_NAME":"STARLINK-36762","OBJECT_ID":"2026-034U","EPOCH":"2026-03-20T05:06:04.860864","MEAN_MOTION":15.81103212,"ECCENTRICITY":0.00016338,"INCLINATION":53.1586,"RA_OF_ASC_NODE":158.4601,"ARG_OF_PERICENTER":140.5152,"MEAN_ANOMALY":219.5991,"EPHEMERIS_TYPE":0,"CLASSIFICATION_TYPE":"U","NORAD_CAT_ID":67868,"ELEMENT_SET_NO":999,"REV_AT_EPOCH":560,"BSTAR":0.002169866,"MEAN_MOTION_DOT":0.00455751,"MEAN_MOTION_DDOT":0},{"OBJECT_NAME":"STARLINK-36779","OBJECT_ID":"2026-034V","EPOCH":"2026-03-20T05:05:00.511872","MEAN_MOTION":15.81030852,"ECCENTRICITY":0.00030465,"INCLINATION":53.1585,"RA_OF_ASC_NODE":158.456,"ARG_OF_PERICENTER":312.5938,"MEAN_ANOMALY":47.4827,"EPHEMERIS_TYPE":0,"CLASSIFICATION_TYPE":"U","NORAD_CAT_ID":67869,"ELEMENT_SET_NO":999,"REV_AT_EPOCH":560,"BSTAR":0.0012306313,"MEAN_MOTION_DOT":0.00251233,"MEAN_MOTION_DDOT":0},{"OBJECT_NAME":"STARLINK-36770","OBJECT_ID":"2026-034W","EPOCH":"2026-03-19T15:23:31.334496","MEAN_MOTION":15.80954163,"ECCENTRICITY":0.00012442,"INCLINATION":53.1591,"RA_OF_ASC_NODE":161.2976,"ARG_OF_PERICENTER":84.6629,"MEAN_ANOMALY":275.4536,"EPHEMERIS_TYPE":0,"CLASSIFICATION_TYPE":"U","NORAD_CAT_ID":67870,"ELEMENT_SET_NO":999,"REV_AT_EPOCH":551,"BSTAR":0.0012627587,"MEAN_MOTION_DOT":0.00257049,"MEAN_MOTION_DDOT":0},{"OBJECT_NAME":"STARLINK-36769","OBJECT_ID":"2026-034X","EPOCH":"2026-03-19T12:22:31.707264","MEAN_MOTION":15.80916079,"ECCENTRICITY":0.00018324,"INCLINATION":53.1593,"RA_OF_ASC_NODE":161.935,"ARG_OF_PERICENTER":90.9566,"MEAN_ANOMALY":269.1667,"EPHEMERIS_TYPE":0,"CLASSIFICATION_TYPE":"U","NORAD_CAT_ID":67871,"ELEMENT_SET_NO":999,"REV_AT_EPOCH":549,"BSTAR":0.0010335278,"MEAN_MOTION_DOT":0.00208707,"MEAN_MOTION_DDOT":0},{"OBJECT_NAME":"STARLINK-36786","OBJECT_ID":"2026-034Y","EPOCH":"2026-03-19T15:22:26.110272","MEAN_MOTION":15.80986973,"ECCENTRICITY":7.859e-5,"INCLINATION":53.1595,"RA_OF_ASC_NODE":161.2919,"ARG_OF_PERICENTER":341.9007,"MEAN_ANOMALY":18.1987,"EPHEMERIS_TYPE":0,"CLASSIFICATION_TYPE":"U","NORAD_CAT_ID":67872,"ELEMENT_SET_NO":999,"REV_AT_EPOCH":551,"BSTAR":0.0014623995,"MEAN_MOTION_DOT":0.00299752,"MEAN_MOTION_DDOT":0},{"OBJECT_NAME":"STARLINK-36783","OBJECT_ID":"2026-034Z","EPOCH":"2026-03-19T12:19:17.250240","MEAN_MOTION":15.8094047,"ECCENTRICITY":0.00010807,"INCLINATION":53.159,"RA_OF_ASC_NODE":161.9193,"ARG_OF_PERICENTER":78.4065,"MEAN_ANOMALY":281.7079,"EPHEMERIS_TYPE":0,"CLASSIFICATION_TYPE":"U","NORAD_CAT_ID":67873,"ELEMENT_SET_NO":999,"REV_AT_EPOCH":549,"BSTAR":0.0010354218,"MEAN_MOTION_DOT":0.00209339,"MEAN_MOTION_DDOT":0},{"OBJECT_NAME":"STARLINK-36730","OBJECT_ID":"2026-034AA","EPOCH":"2026-03-20T04:59:36.879936","MEAN_MOTION":15.81137152,"ECCENTRICITY":0.0002119,"INCLINATION":53.1583,"RA_OF_ASC_NODE":158.4294,"ARG_OF_PERICENTER":359.1238,"MEAN_ANOMALY":0.9781,"EPHEMERIS_TYPE":0,"CLASSIFICATION_TYPE":"U","NORAD_CAT_ID":67874,"ELEMENT_SET_NO":999,"REV_AT_EPOCH":560,"BSTAR":0.0020716491,"MEAN_MOTION_DOT":0.00434687,"MEAN_MOTION_DDOT":0},{"OBJECT_NAME":"STARLINK-36727","OBJECT_ID":"2026-034AB","EPOCH":"2026-03-20T00:25:24.985920","MEAN_MOTION":15.81053388,"ECCENTRICITY":0.0003768,"INCLINATION":53.1576,"RA_OF_ASC_NODE":159.3745,"ARG_OF_PERICENTER":87.3743,"MEAN_ANOMALY":272.7711,"EPHEMERIS_TYPE":0,"CLASSIFICATION_TYPE":"U","NORAD_CAT_ID":67875,"ELEMENT_SET_NO":999,"REV_AT_EPOCH":557,"BSTAR":0.0018421,"MEAN_MOTION_DOT":0.00382653,"MEAN_MOTION_DDOT":0},{"OBJECT_NAME":"STARLINK-36743","OBJECT_ID":"2026-034AC","EPOCH":"2026-03-19T12:16:02.872704","MEAN_MOTION":15.80911012,"ECCENTRICITY":0.00013386,"INCLINATION":53.1594,"RA_OF_ASC_NODE":161.9039,"ARG_OF_PERICENTER":67.3857,"MEAN_ANOMALY":292.7308,"EPHEMERIS_TYPE":0,"CLASSIFICATION_TYPE":"U","NORAD_CAT_ID":67876,"ELEMENT_SET_NO":999,"REV_AT_EPOCH":549,"BSTAR":0.0013773195,"MEAN_MOTION_DOT":0.0028065,"MEAN_MOTION_DDOT":0},{"OBJECT_NAME":"STARLINK-36784","OBJECT_ID":"2026-034AD","EPOCH":"2026-03-20T06:00:02.999808","MEAN_MOTION":15.72284283,"ECCENTRICITY":0.00013192,"INCLINATION":53.1596,"RA_OF_ASC_NODE":158.2579,"ARG_OF_PERICENTER":91.3154,"MEAN_ANOMALY":128.9217,"EPHEMERIS_TYPE":0,"CLASSIFICATION_TYPE":"U","NORAD_CAT_ID":67877,"ELEMENT_SET_NO":999,"REV_AT_EPOCH":555,"BSTAR":-0.016089011,"MEAN_MOTION_DOT":-0.01888623,"MEAN_MOTION_DDOT":0},{"OBJECT_NAME":"STARLINK-36689","OBJECT_ID":"2026-034AE","EPOCH":"2026-03-20T04:55:17.002560","MEAN_MOTION":15.81006412,"ECCENTRICITY":0.00011279,"INCLINATION":53.1588,"RA_OF_ASC_NODE":158.4095,"ARG_OF_PERICENTER":111.0097,"MEAN_ANOMALY":249.1047,"EPHEMERIS_TYPE":0,"CLASSIFICATION_TYPE":"U","NORAD_CAT_ID":67878,"ELEMENT_SET_NO":999,"REV_AT_EPOCH":560,"BSTAR":0.0013251723,"MEAN_MOTION_DOT":0.00270879,"MEAN_MOTION_DDOT":0},{"OBJECT_NAME":"STARLINK-36818","OBJECT_ID":"2026-035A","EPOCH":"2026-03-19T19:11:06.907200","MEAN_MOTION":15.7523442,"ECCENTRICITY":0.00018171,"INCLINATION":97.2873,"RA_OF_ASC_NODE":11.6752,"ARG_OF_PERICENTER":123.9865,"MEAN_ANOMALY":236.1573,"EPHEMERIS_TYPE":0,"CLASSIFICATION_TYPE":"U","NORAD_CAT_ID":67879,"ELEMENT_SET_NO":999,"REV_AT_EPOCH":543,"BSTAR":0.0012157046,"MEAN_MOTION_DOT":0.00185553,"MEAN_MOTION_DDOT":0},{"OBJECT_NAME":"STARLINK-36821","OBJECT_ID":"2026-035B","EPOCH":"2026-03-20T05:47:23.121312","MEAN_MOTION":15.7526934,"ECCENTRICITY":0.00011932,"INCLINATION":97.2874,"RA_OF_ASC_NODE":12.1459,"ARG_OF_PERICENTER":31.0916,"MEAN_ANOMALY":329.042,"EPHEMERIS_TYPE":0,"CLASSIFICATION_TYPE":"U","NORAD_CAT_ID":67880,"ELEMENT_SET_NO":999,"REV_AT_EPOCH":550,"BSTAR":0.0013700408,"MEAN_MOTION_DOT":0.00210045,"MEAN_MOTION_DDOT":0},{"OBJECT_NAME":"STARLINK-36808","OBJECT_ID":"2026-035C","EPOCH":"2026-03-20T06:50:53.452032","MEAN_MOTION":15.809873,"ECCENTRICITY":0.00011444,"INCLINATION":97.2884,"RA_OF_ASC_NODE":12.2376,"ARG_OF_PERICENTER":77.0282,"MEAN_ANOMALY":283.1114,"EPHEMERIS_TYPE":0,"CLASSIFICATION_TYPE":"U","NORAD_CAT_ID":67881,"ELEMENT_SET_NO":999,"REV_AT_EPOCH":551,"BSTAR":0.0019592629,"MEAN_MOTION_DOT":0.00395779,"MEAN_MOTION_DDOT":0}]
